NORAD_CAT_ID,OBJECT_NAME,OBJECT_TYPE,EPOCH,MEAN_MOTION,ECCENTRICITY,INCLINATION,RA_OF_ASC_NODE,ARG_OF_PERICENTER,MEAN_ANOMALY,BSTAR,MEAN_MOTION_DOT,MEAN_MOTION_DDOT,TLE_LINE0,TLE_LINE1,TLE_LINE2,SEMIMAJOR_AXIS,PERIOD,APOGEE,PERIGEE,DECAYED
56807.0,STARLINK-6073,PAYLOAD,2024-07-11 00:20:34,14.98329277,0.0002889,69.9996,53.9283,271.5179,88.5649,2.8295e-05,2.45e-06,0.0,0 STARLINK-6073,1 56807U 23078AS  24193.01429171  .00000245  00000-0  28295-4 0  9991,2 56807  69.9996  53.9283 0002889 271.5179  88.5649 14.98329277 62566,6950.195,96.107,574.068,570.052,0.0
56807.0,STARLINK-6073,PAYLOAD,2024-07-11 14:45:47,14.98331982,0.0002878,69.9997,52.413,271.7244,88.3585,1.5272e-05,8.9e-07,0.0,0 STARLINK-6073,1 56807U 23078AS  24193.61512980  .00000089  00000-0  15272-4 0  9995,2 56807  69.9997  52.4130 0002878 271.7244  88.3585 14.98331982 62399,6950.187,96.107,574.052,570.051,0.0
56807.0,STARLINK-6073,PAYLOAD,2024-07-11 21:10:19,14.98332975,0.0002896,69.9997,51.7388,270.1439,89.9388,2.8574e-05,2.48e-06,0.0,0 STARLINK-6073,1 56807U 23078AS  24193.88216804  .00000248  00000-0  28574-4 0  9996,2 56807  69.9997  51.7388 0002896 270.1439  89.9388 14.98332975 62431,6950.184,96.107,574.061,570.036,0.0
56807.0,STARLINK-6073,PAYLOAD,2024-07-12 00:22:35,14.98333074,0.00029,69.9998,51.4038,268.0495,92.0331,1.7857e-05,1.2e-06,0.0,0 STARLINK-6073,1 56807U 23078AS  24194.01568803  .00000120  00000-0  17857-4 0  9992,2 56807  69.9998  51.4038 0002900 268.0495  92.0331 14.98333074 62710,6950.183,96.107,574.064,570.033,0.0
56807.0,STARLINK-6073,PAYLOAD,2024-07-12 14:47:48,14.98328907,0.0002924,69.9998,49.8873,269.9487,90.1337,2.0031e-05,1.46e-06,0.0,0 STARLINK-6073,1 56807U 23078AS  24194.61652965  .00000146  00000-0  20031-4 0  9997,2 56807  69.9998  49.8873 0002924 269.9487  90.1337 14.98328907 62540,6950.196,96.107,574.094,570.029,0.0
56807.0,STARLINK-6073,PAYLOAD,2024-07-12 22:48:28,14.98329313,0.0002959,69.9999,49.0477,268.3105,91.7715,-1.895e-05,-3.19e-06,0.0,0 STARLINK-6073,1 56807U 23078AS  24194.95033047 -.00000319  00000-0 -18950-4 0  9999,2 56807  69.9999  49.0477 0002959 268.3105  91.7715 14.98329313 62595,6950.195,96.107,574.117,570.003,0.0
56807.0,STARLINK-6073,PAYLOAD,2024-07-13 00:24:36,14.98329653,0.0002957,70.0,48.8794,268.3344,91.7477,-1.5068e-05,-2.73e-06,0.0,0 STARLINK-6073,1 56807U 23078AS  24195.01709015 -.00000273  00000-0 -15068-4 0  9998,2 56807  70.0000  48.8794 0002957 268.3344  91.7477 14.98329653 62865,6950.194,96.107,574.114,570.004,0.0
56807.0,STARLINK-6073,PAYLOAD,2024-07-13 14:49:49,14.98330969,0.0002964,70.0,47.3644,268.4826,91.5994,-2.8217e-05,-4.3e-06,0.0,0 STARLINK-6073,1 56807U 23078AS  24195.61792946 -.00000430  00000-0 -28217-4 0  9994,2 56807  70.0000  47.3644 0002964 268.4826  91.5994 14.98330969 62692,6950.19,96.107,574.115,569.995,0.0
56807.0,STARLINK-6073,PAYLOAD,2024-07-13 22:50:29,14.98332253,0.000298,70.0,46.5223,269.0803,91.0015,-9.7095e-06,-2.09e-06,0.0,0 STARLINK-6073,1 56807U 23078AS  24195.95172782 -.00000209  00000-0 -97095-5 0  9996,2 56807  70.0000  46.5223 0002980 269.0803  91.0015 14.98332253 62749,6950.186,96.107,574.122,569.98,0.0
56807.0,STARLINK-6073,PAYLOAD,2024-07-14 00:26:37,14.98332918,0.0002978,70.0001,46.354,269.0954,90.9864,-1.6034e-06,-1.12e-06,0.0,0 STARLINK-6073,1 56807U 23078AS  24196.01848708 -.00000112  00000-0 -16034-5 0  9999,2 56807  70.0001  46.3540 0002978 269.0954  90.9864 14.98332918 63013,6950.184,96.107,574.119,569.979,0.0
56807.0,STARLINK-6073,PAYLOAD,2024-07-14 14:51:49,14.98329385,0.0003005,70.0,44.8385,271.313,88.7685,1.8073e-05,1.23e-06,0.0,0 STARLINK-6073,1 56807U 23078AS  24196.61932812  .00000123  00000-0  18073-4 0  9999,2 56807  70.0000  44.8385 0003005 271.3130  88.7685 14.98329385 62846,6950.195,96.107,574.148,569.971,0.0
56807.0,STARLINK-6073,PAYLOAD,2024-07-14 21:16:22,14.98330619,0.0002995,70.0,44.1653,271.0786,89.003,3.0414e-05,2.7e-06,0.0,0 STARLINK-6073,1 56807U 23078AS  24196.88636694  .00000270  00000-0  30414-4 0  9993,2 56807  70.0000  44.1653 0002995 271.0786  89.0030 14.98330619 62882,6950.191,96.107,574.138,569.974,0.0
56807.0,STARLINK-6073,PAYLOAD,2024-07-15 06:53:10,14.9833709,0.0002992,70.0002,43.1556,268.23,91.8517,-0.00010127,-1.301e-05,0.0,0 STARLINK-6073,1 56807U 23078AS  24197.28692518 -.00001301  00000-0 -10127-3 0  9991,2 56807  70.0002  43.1556 0002992 268.2300  91.8517 14.98337090 63200,6950.171,96.107,574.115,569.956,0.0
56807.0,STARLINK-6073,PAYLOAD,2024-07-15 14:53:50,14.98329502,0.0002932,70.0001,42.3143,264.711,95.3714,-1.685e-05,-2.94e-06,0.0,0 STARLINK-6073,1 56807U 23078AS  24197.62072801 -.00000294  00000-0 -16850-4 0  9996,2 56807  70.0001  42.3143 0002932 264.7110  95.3714 14.98329502 62998,6950.194,96.107,574.097,570.022,0.0
56807.0,STARLINK-6073,PAYLOAD,2024-07-15 21:18:23,14.98329388,0.0002951,70.0002,41.6407,266.2934,93.7888,-1.6769e-05,-2.93e-06,0.0,0 STARLINK-6073,1 56807U 23078AS  24197.88776806 -.00000293  00000-0 -16769-4 0  9998,2 56807  70.0002  41.6407 0002951 266.2934  93.7888 14.98329388 63038,6950.195,96.107,574.111,570.009,0.0
56807.0,STARLINK-6073,PAYLOAD,2024-07-16 06:55:11,14.98330962,0.0002973,70.0002,40.6305,267.9369,92.1449,-2.4027e-07,-9.6e-07,0.0,0 STARLINK-6073,1 56807U 23078AS  24198.28832629 -.00000096  00000-0 -24027-6 0  9998,2 56807  70.0002  40.6305 0002973 267.9369  92.1449 14.98330962 63359,6950.19,96.107,574.121,569.989,0.0
56807.0,STARLINK-6073,PAYLOAD,2024-07-16 14:55:51,14.98330551,0.0002943,70.0002,39.7887,266.7005,93.3817,-2.2638e-06,-1.2e-06,0.0,0 STARLINK-6073,1 56807U 23078AS  24198.62212629 -.00000120  00000-0 -22638-5 0  9991,2 56807  70.0002  39.7887 0002943 266.7005  93.3817 14.98330551 63147,6950.191,96.107,574.102,570.011,0.0
56807.0,STARLINK-6073,PAYLOAD,2024-07-16 21:20:23,14.98332929,0.0002944,70.0002,39.1153,266.3474,93.7348,2.2107e-06,-6.7e-07,0.0,0 STARLINK-6073,1 56807U 23078AS  24198.88916434 -.00000067  00000-0  22107-5 0  9994,2 56807  70.0002  39.1153 0002944 266.3474  93.7348 14.98332929 63182,6950.184,96.107,574.095,570.003,0.0
56807.0,STARLINK-6073,PAYLOAD,2024-07-17 06:57:12,14.98331349,0.00031,69.9998,38.1039,269.9541,90.1263,-1.6162e-05,-2.86e-06,0.0,0 STARLINK-6073,1 56807U 23078AS  24199.28972460 -.00000286  00000-0 -16162-4 0  9997,2 56807  69.9998  38.1039 0003100 269.9541  90.1263 14.98331349 63502,6950.189,96.107,574.208,569.899,0.0
56807.0,STARLINK-6073,PAYLOAD,2024-07-17 14:57:53,14.98322972,0.0003054,70.0001,37.2633,268.1084,91.9726,-2.2263e-05,-3.59e-06,0.0,0 STARLINK-6073,1 56807U 23078AS  24199.62353093 -.00000359  00000-0 -22263-4 0  9990,2 56807  70.0001  37.2633 0003054 268.1084  91.9726 14.98322972 63292,6950.215,96.107,574.202,569.957,0.0
56807.0,STARLINK-6073,PAYLOAD,2024-07-17 19:46:17,14.98323976,0.0003016,70.0,36.7582,266.6837,93.3977,-2.7231e-05,-4.18e-06,0.0,0 STARLINK-6073,1 56807U 23078AS  24199.82381115 -.00000418  00000-0 -27231-4 0  9994,2 56807  70.0000  36.7582 0003016 266.6837  93.3977 14.98323976 63586,6950.212,96.107,574.173,569.98,0.0
56807.0,STARLINK-6073,PAYLOAD,2024-07-17 21:22:25,14.98326879,0.0003034,69.9999,36.59,267.2785,92.8027,-1.8719e-05,-3.16e-06,0.0,0 STARLINK-6073,1 56807U 23078AS  24199.89056919 -.00000316  00000-0 -18719-4 0  9990,2 56807  69.9999  36.5900 0003034 267.2785  92.8027 14.98326879 63339,6950.203,96.107,574.176,569.959,0.0
56807.0,STARLINK-6073,PAYLOAD,2024-07-18 13:23:45,14.98328867,0.0002914,70.0001,34.9057,270.706,89.3765,-2.0606e-05,-3.39e-06,0.0,0 STARLINK-6073,1 56807U 23078AS  24200.55816918 -.00000339  00000-0 -20606-4 0  9992,2 56807  70.0001  34.9057 0002914 270.7060  89.3765 14.98328867 63432,6950.196,96.107,574.087,570.036,0.0
56807.0,STARLINK-6073,PAYLOAD,2024-07-18 19:48:18,14.98329025,0.0002883,70.0002,34.2324,271.3723,88.7105,-5.2332e-06,-1.55e-06,0.0,0 STARLINK-6073,1 56807U 23078AS  24200.82520890 -.00000155  00000-0 -52332-5 0  9991,2 56807  70.0002  34.2324 0002883 271.3723  88.7105 14.98329025 63732,6950.196,96.107,574.065,570.057,0.0
56807.0,STARLINK-6073,PAYLOAD,2024-07-18 21:24:25,14.98330959,0.0002867,70.0002,34.0642,271.7033,88.3797,1.8518e-05,1.28e-06,0.0,0 STARLINK-6073,1 56807U 23078AS  24200.89196702  .00000128  00000-0  18518-4 0  9994,2 56807  70.0002  34.0642 0002867 271.7033  88.3797 14.98330959 63486,6950.19,96.107,574.048,570.062,0.0
56807.0,STARLINK-6073,PAYLOAD,2024-07-19 15:01:54,14.98327922,0.0002876,70.0002,32.2129,272.8362,87.2468,6.9473e-05,7.36e-06,0.0,0 STARLINK-6073,1 56807U 23078AS  24201.62632693  .00000736  00000-0  69473-4 0  9991,2 56807  70.0002  32.2129 0002876 272.8362  87.2468 14.98327922 63594,6950.199,96.107,574.063,570.065,0.0
56807.0,STARLINK-6073,PAYLOAD,2024-07-19 19:50:18,14.98328257,0.0002923,70.0002,31.7081,272.1604,87.9221,4.9087e-05,4.93e-06,0.0,0 STARLINK-6073,1 56807U 23078AS  24201.82660739  .00000493  00000-0  49087-4 0  9994,2 56807  70.0002  31.7081 0002923 272.1604  87.9221 14.98328257 63888,6950.198,96.107,574.095,570.032,0.0
56807.0,STARLINK-6073,PAYLOAD,2024-07-19 21:26:26,14.98329405,0.000291,70.0002,31.5397,272.1681,87.9145,6.1226e-05,6.38e-06,0.0,0 STARLINK-6073,1 56807U 23078AS  24201.89336632  .00000638  00000-0  61226-4 0  9993,2 56807  70.0002  31.5397 0002910 272.1681  87.9145 14.98329405 63631,6950.195,96.107,574.082,570.037,0.0
56807.0,STARLINK-6073,PAYLOAD,2024-07-20 15:03:55,14.98328858,0.0002869,70.0005,29.6881,271.5007,88.5824,-1.9254e-05,-3.23e-06,0.0,0 STARLINK-6073,1 56807U 23078AS  24202.62772891 -.00000323  00000-0 -19254-4 0  9993,2 56807  70.0005  29.6881 0002869 271.5007  88.5824 14.98328858 63742,6950.196,96.107,574.055,570.067,0.0
56807.0,STARLINK-6073,PAYLOAD,2024-07-20 19:52:19,14.98330286,0.0002842,70.0006,29.1838,266.1194,93.964,-5.4598e-06,-1.58e-06,0.0,0 STARLINK-6073,1 56807U 23078AS  24202.82800727 -.00000158  00000-0 -54598-5 0  9992,2 56807  70.0006  29.1838 0002842 266.1194  93.9640 14.98330286 64035,6950.192,96.107,574.032,570.082,0.0
